[
    {
        "Altitude(m)": 611967.1548275523,
        "Argument of Periapsis(deg)": 0.0,
        "Eccentricity": 0.0,
        "Inclination(deg)": 60.0,
        "Latitude(deg)": 59.14008850903099,
        "Longitude(deg)": -33.908065028650554,
        "Mean Anomaly(deg)": -261.8182,
        "RAAN(deg)": 320.0,
        "Satellite Name": "Test1 1414",
        "Satellite Number": 1414,
        "Semi-Major Axis(m)": 6980739.136638005,
        "Time(s)": 0
    },
    {
        "Altitude(m)": 611934.3551031546,
        "Argument of Periapsis(deg)": 0.00010418945913296404,
        "Eccentricity": 0.0,
        "Inclination(deg)": 60.0,
        "Latitude(deg)": 58.986452147628775,
        "Longitude(deg)": -32.78482090441106,
        "Mean Anomaly(deg)": -261.1980938545382,
        "RAAN(deg)": 319.9995799508602,
        "Satellite Name": "Test1 1414",
        "Satellite Number": 1414,
        "Semi-Major Axis(m)": 6980739.136638005,
        "Time(s)": 10
    },
    {
        "Altitude(m)": 611899.2507434791,
        "Argument of Periapsis(deg)": 0.0002083789182659281,
        "Eccentricity": 0.0,
        "Inclination(deg)": 60.0,
        "Latitude(deg)": 58.8224376893737,
        "Longitude(deg)": -31.672241960505378,
        "Mean Anomaly(deg)": -260.57798770907635,
        "RAAN(deg)": 319.9991599017205,
        "Satellite Name": "Test1 1414",
        "Satellite Number": 1414,
        "Semi-Major Axis(m)": 6980739.136638005,
        "Time(s)": 20
    },
    {
        "Altitude(m)": 611861.8619826962,
        "Argument of Periapsis(deg)": 0.00031256837739889213,
        "Eccentricity": 0.0,
        "Inclination(deg)": 60.0,
        "Latitude(deg)": 58.648208181723696,
        "Longitude(deg)": -30.570839992559947,
        "Mean Anomaly(deg)": -259.9578815636145,
        "RAAN(deg)": 319.9987398525808,
        "Satellite Name": "Test1 1414",
        "Satellite Number": 1414,
        "Semi-Major Axis(m)": 6980739.136638005,
        "Time(s)": 30
    },
    {
        "Altitude(m)": 611822.2103808126,
        "Argument of Periapsis(deg)": 0.0004167578365318562,
        "Eccentricity": 0.0,
        "Inclination(deg)": 60.0,
        "Latitude(deg)": 58.463933121156124,
        "Longitude(deg)": -29.481086048025954,
        "Mean Anomaly(deg)": -259.3377754181527,
        "RAAN(deg)": 319.998319803441,
        "Satellite Name": "Test1 1414",
        "Satellite Number": 1414,
        "Semi-Major Axis(m)": 6980739.136638005,
        "Time(s)": 40
    },
    {
        "Altitude(m)": 611780.3188134531,
        "Argument of Periapsis(deg)": 0.0005209472956648203,
        "Eccentricity": 0.0,
        "Inclination(deg)": 60.0,
        "Latitude(deg)": 58.26978773665522,
        "Longitude(deg)": -28.403411202447796,
        "Mean Anomaly(deg)": -258.71766927269084,
        "RAAN(deg)": 319.9978997543013,
        "Satellite Name": "Test1 1414",
        "Satellite Number": 1414,
        "Semi-Major Axis(m)": 6980739.136638005,
        "Time(s)": 50
    },
    {
        "Altitude(m)": 611736.2114610674,
        "Argument of Periapsis(deg)": 0.0006251367547977843,
        "Eccentricity": 0.0,
        "Inclination(deg)": 60.0,
        "Latitude(deg)": 58.0659522796582,
        "Longitude(deg)": -27.338206112862697,
        "Mean Anomaly(deg)": -258.097563127229,
        "RAAN(deg)": 319.99747970516154,
        "Satellite Name": "Test1 1414",
        "Satellite Number": 1414,
        "Semi-Major Axis(m)": 6980739.136638005,
        "Time(s)": 60
    },
    {
        "Altitude(m)": 611689.9137974561,
        "Argument of Periapsis(deg)": 0.0007293262139307483,
        "Eccentricity": 0.0,
        "Inclination(deg)": 60.0,
        "Latitude(deg)": 57.85261132583998,
        "Longitude(deg)": -26.285820840963904,
        "Mean Anomaly(deg)": -257.4774569817672,
        "RAAN(deg)": 319.9970596560218,
        "Satellite Name": "Test1 1414",
        "Satellite Number": 1414,
        "Semi-Major Axis(m)": 6980739.136638005,
        "Time(s)": 70
    },
    {
        "Altitude(m)": 611641.4525777354,
        "Argument of Periapsis(deg)": 0.0008335156730637124,
        "Eccentricity": 0.0,
        "Inclination(deg)": 60.0,
        "Latitude(deg)": 57.62995309357657,
        "Longitude(deg)": -25.24656643651999,
        "Mean Anomaly(deg)": -256.85735083630533,
        "RAAN(deg)": 319.99663960688207,
        "Satellite Name": "Test1 1414",
        "Satellite Number": 1414,
        "Semi-Major Axis(m)": 6980739.136638005,
        "Time(s)": 80
    },
    {
        "Altitude(m)": 611590.8558256469,
        "Argument of Periapsis(deg)": 0.0009377051321966765,
        "Eccentricity": 0.0,
        "Inclination(deg)": 60.0,
        "Latitude(deg)": 57.398168783362436,
        "Longitude(deg)": -24.220715231375927,
        "Mean Anomaly(deg)": -256.23724469084357,
        "RAAN(deg)": 319.9962195577423,
        "Satellite Name": "Test1 1414",
        "Satellite Number": 1414,
        "Semi-Major Axis(m)": 6980739.136638005,
        "Time(s)": 90
    },
    {
        "Altitude(m)": 611538.1528202853,
        "Argument of Periapsis(deg)": 0.0010418945913296407,
        "Eccentricity": 0.0,
        "Inclination(deg)": 60.0,
        "Latitude(deg)": 57.157451941866235,
        "Longitude(deg)": -23.208501332020454,
        "Mean Anomaly(deg)": -255.61713854538175,
        "RAAN(deg)": 319.99579950860254,
        "Satellite Name": "Test1 1414",
        "Satellite Number": 1414,
        "Semi-Major Axis(m)": 6980739.136638005,
        "Time(s)": 100
    },
    {
        "Altitude(m)": 611483.3740821871,
        "Argument of Periapsis(deg)": 0.0011460840504626045,
        "Eccentricity": 0.0,
        "Inclination(deg)": 60.0,
        "Latitude(deg)": 56.90799785372262,
        "Longitude(deg)": -22.210122798289046,
        "Mean Anomaly(deg)": -254.99703239991987,
        "RAAN(deg)": 319.99537945946287,
        "Satellite Name": "Test1 1414",
        "Satellite Number": 1414,
        "Semi-Major Axis(m)": 6980739.136638005,
        "Time(s)": 110
    },
    {
        "Altitude(m)": 611426.5513588868,
        "Argument of Periapsis(deg)": 0.0012502735095955685,
        "Eccentricity": 0.0,
        "Inclination(deg)": 60.0,
        "Latitude(deg)": 56.65000296358927,
        "Longitude(deg)": -21.22574245722593,
        "Mean Anomaly(deg)": -254.37692625445808,
        "RAAN(deg)": 319.9949594103231,
        "Satellite Name": "Test1 1414",
        "Satellite Number": 1414,
        "Semi-Major Axis(m)": 6980739.136638005,
        "Time(s)": 120
    },
    {
        "Altitude(m)": 611367.7176098125,
        "Argument of Periapsis(deg)": 0.0013544629687285324,
        "Eccentricity": 0.0,
        "Inclination(deg)": 60.0,
        "Latitude(deg)": 56.38366433043465,
        "Longitude(deg)": -20.255488840244197,
        "Mean Anomaly(deg)": -253.7568201089962,
        "RAAN(deg)": 319.99453936118334,
        "Satellite Name": "Test1 1414",
        "Satellite Number": 1414,
        "Semi-Major Axis(m)": 6980739.136638005,
        "Time(s)": 130
    },
    {
        "Altitude(m)": 611306.9069906219,
        "Argument of Periapsis(deg)": 0.0014586524278614966,
        "Eccentricity": 0.0,
        "Inclination(deg)": 60.0,
        "Latitude(deg)": 56.10917911549779,
        "Longitude(deg)": -19.299458732595877,
        "Mean Anomaly(deg)": -253.13671396353436,
        "RAAN(deg)": 319.9941193120436,
        "Satellite Name": "Test1 1414",
        "Satellite Number": 1414,
        "Semi-Major Axis(m)": 6980739.136638005,
        "Time(s)": 140
    },
    {
        "Altitude(m)": 611244.1548369819,
        "Argument of Periapsis(deg)": 0.0015628418869944607,
        "Eccentricity": 0.0,
        "Inclination(deg)": 60.0,
        "Latitude(deg)": 55.82674410487515,
        "Longitude(deg)": -18.357718286713645,
        "Mean Anomaly(deg)": -252.51660781807257,
        "RAAN(deg)": 319.9936992629039,
        "Satellite Name": "Test1 1414",
        "Satellite Number": 1414,
        "Semi-Major Axis(m)": 6980739.136638005,
        "Time(s)": 150
    },
    {
        "Altitude(m)": 611179.4976477487,
        "Argument of Periapsis(deg)": 0.0016670313461274247,
        "Eccentricity": 0.0,
        "Inclination(deg)": 60.0,
        "Latitude(deg)": 55.5365552672333,
        "Longitude(deg)": -17.430304191010197,
        "Mean Anomaly(deg)": -251.89650167261073,
        "RAAN(deg)": 319.99327921376414,
        "Satellite Name": "Test1 1414",
        "Satellite Number": 1414,
        "Semi-Major Axis(m)": 6980739.136638005,
        "Time(s)": 160
    },
    {
        "Altitude(m)": 611112.973067569,
        "Argument of Periapsis(deg)": 0.0017712208052603888,
        "Eccentricity": 0.0,
        "Inclination(deg)": 60.0,
        "Latitude(deg)": 55.23880734673769,
        "Longitude(deg)": -16.517226387309112,
        "Mean Anomaly(deg)": -251.27639552714888,
        "RAAN(deg)": 319.99285916462435,
        "Satellite Name": "Test1 1414",
        "Satellite Number": 1414,
        "Semi-Major Axis(m)": 6980739.136638005,
        "Time(s)": 170
    },
    {
        "Altitude(m)": 611044.6198689691,
        "Argument of Periapsis(deg)": 0.001875410264393353,
        "Eccentricity": 0.0,
        "Inclination(deg)": 60.0,
        "Latitude(deg)": 54.93369349093478,
        "Longitude(deg)": -15.618469293171104,
        "Mean Anomaly(deg)": -250.65628938168706,
        "RAAN(deg)": 319.9924391154846,
        "Satellite Name": "Test1 1414",
        "Satellite Number": 1414,
        "Semi-Major Axis(m)": 6980739.136638005,
        "Time(s)": 180
    },
    {
        "Altitude(m)": 610974.4779338422,
        "Argument of Periapsis(deg)": 0.0019795997235263173,
        "Eccentricity": 0.0,
        "Inclination(deg)": 60.0,
        "Latitude(deg)": 54.621404912999616,
        "Longitude(deg)": -14.733993025771774,
        "Mean Anomaly(deg)": -250.0361832362252,
        "RAAN(deg)": 319.99201906634494,
        "Satellite Name": "Test1 1414",
        "Satellite Number": 1414,
        "Semi-Major Axis(m)": 6980739.136638005,
        "Time(s)": 190
    }
]